0 ONEWEB-0128
1 47274U 20100S   24268.32088993  .00000082  00000-0  19329-3 0  9998
2 47274  87.8868 116.3340 0001736  92.0349 268.0978 13.12445192181993
0 ONEWEB-0129
1 47275U 20100T   24268.52852148 -.00000392  00000-0 -11243-2 0  9994
2 47275  87.8864 116.2531 0003197  67.3582 292.7884 13.12441234181957
0 ONEWEB-0130
1 47276U 20100U   24268.09867230  .00000246  00000-0  64835-3 0  9997
2 47276  87.8865 116.3450 0001834  84.3873 275.7465 13.12444400181862
0 ONEWEB-0131
1 47277U 20100V   24268.09542610  .00000134  00000-0  33776-3 0  9996
2 47277  87.8866 116.3632 0001715  87.3727 272.7598 13.12444445181903
0 ONEWEB-0132
1 47278U 20100W   24268.50581542  .00000286  00000-0  75981-3 0  9992
2 47278  87.8866 116.2834 0001440  86.2880 273.8413 13.12441918181854
0 ONEWEB-0133
1 47279U 20100X   24268.52203531 -.00000161  00000-0 -48283-3 0  9993
2 47279  87.8856 116.2731 0001687  87.2251 272.9071 13.12441635182011
0 ONEWEB-0134
1 47280U 20100Y   24268.33874303  .00000517  00000-0  14021-2 0  9990
2 47280  87.8859 116.2965 0001894  87.4652 272.6693 13.12445328181965
0 ONEWEB-0135
1 47281U 20100Z   24268.30954071 -.00000312  00000-0 -90249-3 0  9991
2 47281  87.8864 116.3241 0002001  95.9187 264.2169 13.12442088181985
